IRIDIUM 39              
1 25042U 97069D   25074.56504243  .00001786  00000+0  46547-3 0  9991
2 25042  86.3864 251.2613 0015893 258.3628 101.5792 14.48985096435405
IRIDIUM 38              
1 25043U 97069E   25074.65042688  .00001010  00000+0  32794-3 0  9991
2 25043  86.3896 272.5245 0003716  68.1807 291.9786 14.37965810432779
IRIDIUM 42              
1 25077U 97077A   25074.82073683  .00000899  00000+0  30161-3 0  9995
2 25077  86.3904 278.5139 0002766  82.1756 277.9755 14.36213822427791
IRIDIUM 44              
1 25078U 97077B   25074.61018275  .00001134  00000+0  35329-3 0  9993
2 25078  86.3900 260.7534 0002178  39.0064 321.1292 14.40093445430233
IRIDIUM 45              
1 25104U 97082A   25074.52740294  .00031212  00000+0  12592-2 0  9998
2 25104  86.3545  93.2418 0124373 322.8555  36.4126 15.17721530438067
IRIDIUM 24              
1 25105U 97082B   25074.84193796  .00001013  00000+0  30313-3 0  9991
2 25105  86.3886 119.9088 0012508  36.6444 323.5609 14.41943247430018
IRIDIUM 51              
1 25262U 98018A   25074.54434049  .00041464  00000+0  11575-2 0  9993
2 25262  86.3816 101.9387 0098383 247.1477 111.9361 15.31732154432657
IRIDIUM 57              
1 25273U 98019B   25074.37043857  .00000970  00000+0  32882-3 0  9992
2 25273  86.4035 184.5307 0002179  93.9708 266.1738 14.35783522411324
