<?xml version="1.0" encoding="UTF-8"?>
<ndm xmlns:xsi="http://www.w3.org/2001/XMLSchema-instance" xsi:noNamespaceSchemaLocation="https://sanaregistry.org/r/ndmxml_unqualified/ndmxml-2.0.0-master-2.0.xsd">
<omm id="CCSDS_OMM_VERS" version="2.0">
<header><CREATION_DATE/><ORIGINATOR/></header><body><segment><metadata><OBJECT_NAME>IRIDIUM 39</OBJECT_NAME><OBJECT_ID>1997-069D</OBJECT_ID><CENTER_NAME>EARTH</CENTER_NAME><REF_FRAME>TEME</REF_FRAME><TIME_SYSTEM>UTC</TIME_SYSTEM><MEAN_ELEMENT_THEORY>SGP4</MEAN_ELEMENT_THEORY></metadata><data><meanElements><EPOCH>2025-03-15T13:33:39.665952</EPOCH><MEAN_MOTION>14.48985096</MEAN_MOTION><ECCENTRICITY>.0015893</ECCENTRICITY><INCLINATION>86.3864</INCLINATION><RA_OF_ASC_NODE>251.2613</RA_OF_ASC_NODE><ARG_OF_PERICENTER>258.3628</ARG_OF_PERICENTER><MEAN_ANOMALY>101.5792</MEAN_ANOMALY></meanElements><tleParameters><EPHEMERIS_TYPE>0</EPHEMERIS_TYPE><CLASSIFICATION_TYPE>U</CLASSIFICATION_TYPE><NORAD_CAT_ID>25042</NORAD_CAT_ID><ELEMENT_SET_NO>999</ELEMENT_SET_NO><REV_AT_EPOCH>43540</REV_AT_EPOCH><BSTAR>.46547E-3</BSTAR><MEAN_MOTION_DOT>.1786E-4</MEAN_MOTION_DOT><MEAN_MOTION_DDOT>0</MEAN_MOTION_DDOT></tleParameters></data></segment></body></omm>
<omm id="CCSDS_OMM_VERS" version="2.0">
<header><CREATION_DATE/><ORIGINATOR/></header><body><segment><metadata><OBJECT_NAME>IRIDIUM 38</OBJECT_NAME><OBJECT_ID>1997-069E</OBJECT_ID><CENTER_NAME>EARTH</CENTER_NAME><REF_FRAME>TEME</REF_FRAME><TIME_SYSTEM>UTC</TIME_SYSTEM><MEAN_ELEMENT_THEORY>SGP4</MEAN_ELEMENT_THEORY></metadata><data><meanElements><EPOCH>2025-03-15T15:36:36.882432</EPOCH><MEAN_MOTION>14.37965810</MEAN_MOTION><ECCENTRICITY>.0003716</ECCENTRICITY><INCLINATION>86.3896</INCLINATION><RA_OF_ASC_NODE>272.5245</RA_OF_ASC_NODE><ARG_OF_PERICENTER>68.1807</ARG_OF_PERICENTER><MEAN_ANOMALY>291.9786</MEAN_ANOMALY></meanElements><tleParameters><EPHEMERIS_TYPE>0</EPHEMERIS_TYPE><CLASSIFICATION_TYPE>U</CLASSIFICATION_TYPE><NORAD_CAT_ID>25043</NORAD_CAT_ID><ELEMENT_SET_NO>999</ELEMENT_SET_NO><REV_AT_EPOCH>43277</REV_AT_EPOCH><BSTAR>.32794E-3</BSTAR><MEAN_MOTION_DOT>.101E-4</MEAN_MOTION_DOT><MEAN_MOTION_DDOT>0</MEAN_MOTION_DDOT></tleParameters></data></segment></body></omm>
<omm id="CCSDS_OMM_VERS" version="2.0">
<header><CREATION_DATE/><ORIGINATOR/></header><body><segment><metadata><OBJECT_NAME>IRIDIUM 42</OBJECT_NAME><OBJECT_ID>1997-077A</OBJECT_ID><CENTER_NAME>EARTH</CENTER_NAME><REF_FRAME>TEME</REF_FRAME><TIME_SYSTEM>UTC</TIME_SYSTEM><MEAN_ELEMENT_THEORY>SGP4</MEAN_ELEMENT_THEORY></metadata><data><meanElements><EPOCH>2025-03-15T19:41:51.662112</EPOCH><MEAN_MOTION>14.36213822</MEAN_MOTION><ECCENTRICITY>.0002766</ECCENTRICITY><INCLINATION>86.3904</INCLINATION><RA_OF_ASC_NODE>278.5139</RA_OF_ASC_NODE><ARG_OF_PERICENTER>82.1756</ARG_OF_PERICENTER><MEAN_ANOMALY>277.9755</MEAN_ANOMALY></meanElements><tleParameters><EPHEMERIS_TYPE>0</EPHEMERIS_TYPE><CLASSIFICATION_TYPE>U</CLASSIFICATION_TYPE><NORAD_CAT_ID>25077</NORAD_CAT_ID><ELEMENT_SET_NO>999</ELEMENT_SET_NO><REV_AT_EPOCH>42779</REV_AT_EPOCH><BSTAR>.30161E-3</BSTAR><MEAN_MOTION_DOT>.899E-5</MEAN_MOTION_DOT><MEAN_MOTION_DDOT>0</MEAN_MOTION_DDOT></tleParameters></data></segment></body></omm>
<omm id="CCSDS_OMM_VERS" version="2.0">
<header><CREATION_DATE/><ORIGINATOR/></header><body><segment><metadata><OBJECT_NAME>IRIDIUM 44</OBJECT_NAME><OBJECT_ID>1997-077B</OBJECT_ID><CENTER_NAME>EARTH</CENTER_NAME><REF_FRAME>TEME</REF_FRAME><TIME_SYSTEM>UTC</TIME_SYSTEM><MEAN_ELEMENT_THEORY>SGP4</MEAN_ELEMENT_THEORY></metadata><data><meanElements><EPOCH>2025-03-15T14:38:39.789600</EPOCH><MEAN_MOTION>14.40093445</MEAN_MOTION><ECCENTRICITY>.0002178</ECCENTRICITY><INCLINATION>86.3900</INCLINATION><RA_OF_ASC_NODE>260.7534</RA_OF_ASC_NODE><ARG_OF_PERICENTER>39.0064</ARG_OF_PERICENTER><MEAN_ANOMALY>321.1292</MEAN_ANOMALY></meanElements><tleParameters><EPHEMERIS_TYPE>0</EPHEMERIS_TYPE><CLASSIFICATION_TYPE>U</CLASSIFICATION_TYPE><NORAD_CAT_ID>25078</NORAD_CAT_ID><ELEMENT_SET_NO>999</ELEMENT_SET_NO><REV_AT_EPOCH>43023</REV_AT_EPOCH><BSTAR>.35329E-3</BSTAR><MEAN_MOTION_DOT>.1134E-4</MEAN_MOTION_DOT><MEAN_MOTION_DDOT>0</MEAN_MOTION_DDOT></tleParameters></data></segment></body></omm>
<omm id="CCSDS_OMM_VERS" version="2.0">
<header><CREATION_DATE/><ORIGINATOR/></header><body><segment><metadata><OBJECT_NAME>IRIDIUM 45</OBJECT_NAME><OBJECT_ID>1997-082A</OBJECT_ID><CENTER_NAME>EARTH</CENTER_NAME><REF_FRAME>TEME</REF_FRAME><TIME_SYSTEM>UTC</TIME_SYSTEM><MEAN_ELEMENT_THEORY>SGP4</MEAN_ELEMENT_THEORY></metadata><data><meanElements><EPOCH>2025-03-15T12:39:27.614016</EPOCH><MEAN_MOTION>15.17721530</MEAN_MOTION><ECCENTRICITY>.0124373</ECCENTRICITY><INCLINATION>86.3545</INCLINATION><RA_OF_ASC_NODE>93.2418</RA_OF_ASC_NODE><ARG_OF_PERICENTER>322.8555</ARG_OF_PERICENTER><MEAN_ANOMALY>36.4126</MEAN_ANOMALY></meanElements><tleParameters><EPHEMERIS_TYPE>0</EPHEMERIS_TYPE><CLASSIFICATION_TYPE>U</CLASSIFICATION_TYPE><NORAD_CAT_ID>25104</NORAD_CAT_ID><ELEMENT_SET_NO>999</ELEMENT_SET_NO><REV_AT_EPOCH>43806</REV_AT_EPOCH><BSTAR>.12592E-2</BSTAR><MEAN_MOTION_DOT>.31212E-3</MEAN_MOTION_DOT><MEAN_MOTION_DDOT>0</MEAN_MOTION_DDOT></tleParameters></data></segment></body></omm>
<omm id="CCSDS_OMM_VERS" version="2.0">
<header><CREATION_DATE/><ORIGINATOR/></header><body><segment><metadata><OBJECT_NAME>IRIDIUM 24</OBJECT_NAME><OBJECT_ID>1997-082B</OBJECT_ID><CENTER_NAME>EARTH</CENTER_NAME><REF_FRAME>TEME</REF_FRAME><TIME_SYSTEM>UTC</TIME_SYSTEM><MEAN_ELEMENT_THEORY>SGP4</MEAN_ELEMENT_THEORY></metadata><data><meanElements><EPOCH>2025-03-15T20:12:23.439744</EPOCH><MEAN_MOTION>14.41943247</MEAN_MOTION><ECCENTRICITY>.0012508</ECCENTRICITY><INCLINATION>86.3886</INCLINATION><RA_OF_ASC_NODE>119.9088</RA_OF_ASC_NODE><ARG_OF_PERICENTER>36.6444</ARG_OF_PERICENTER><MEAN_ANOMALY>323.5609</MEAN_ANOMALY></meanElements><tleParameters><EPHEMERIS_TYPE>0</EPHEMERIS_TYPE><CLASSIFICATION_TYPE>U</CLASSIFICATION_TYPE><NORAD_CAT_ID>25105</NORAD_CAT_ID><ELEMENT_SET_NO>999</ELEMENT_SET_NO><REV_AT_EPOCH>43001</REV_AT_EPOCH><BSTAR>.30313E-3</BSTAR><MEAN_MOTION_DOT>.1013E-4</MEAN_MOTION_DOT><MEAN_MOTION_DDOT>0</MEAN_MOTION_DDOT></tleParameters></data></segment></body></omm>
<omm id="CCSDS_OMM_VERS" version="2.0">
<header><CREATION_DATE/><ORIGINATOR/></header><body><segment><metadata><OBJECT_NAME>IRIDIUM 51</OBJECT_NAME><OBJECT_ID>1998-018A</OBJECT_ID><CENTER_NAME>EARTH</CENTER_NAME><REF_FRAME>TEME</REF_FRAME><TIME_SYSTEM>UTC</TIME_SYSTEM><MEAN_ELEMENT_THEORY>SGP4</MEAN_ELEMENT_THEORY></metadata><data><meanElements><EPOCH>2025-03-15T13:03:51.018336</EPOCH><MEAN_MOTION>15.31732154</MEAN_MOTION><ECCENTRICITY>.0098383</ECCENTRICITY><INCLINATION>86.3816</INCLINATION><RA_OF_ASC_NODE>101.9387</RA_OF_ASC_NODE><ARG_OF_PERICENTER>247.1477</ARG_OF_PERICENTER><MEAN_ANOMALY>111.9361</MEAN_ANOMALY></meanElements><tleParameters><EPHEMERIS_TYPE>0</EPHEMERIS_TYPE><CLASSIFICATION_TYPE>U</CLASSIFICATION_TYPE><NORAD_CAT_ID>25262</NORAD_CAT_ID><ELEMENT_SET_NO>999</ELEMENT_SET_NO><REV_AT_EPOCH>43265</REV_AT_EPOCH><BSTAR>.11575E-2</BSTAR><MEAN_MOTION_DOT>.41464E-3</MEAN_MOTION_DOT><MEAN_MOTION_DDOT>0</MEAN_MOTION_DDOT></tleParameters></data></segment></body></omm>
<omm id="CCSDS_OMM_VERS" version="2.0">
<header><CREATION_DATE/><ORIGINATOR/></header><body><segment><metadata><OBJECT_NAME>IRIDIUM 57</OBJECT_NAME><OBJECT_ID>1998-019B</OBJECT_ID><CENTER_NAME>EARTH</CENTER_NAME><REF_FRAME>TEME</REF_FRAME><TIME_SYSTEM>UTC</TIME_SYSTEM><MEAN_ELEMENT_THEORY>SGP4</MEAN_ELEMENT_THEORY></metadata><data><meanElements><EPOCH>2025-03-15T08:53:25.892448</EPOCH><MEAN_MOTION>14.35783522</MEAN_MOTION><ECCENTRICITY>.0002179</ECCENTRICITY><INCLINATION>86.4035</INCLINATION><RA_OF_ASC_NODE>184.5307</RA_OF_ASC_NODE><ARG_OF_PERICENTER>93.9708</ARG_OF_PERICENTER><MEAN_ANOMALY>266.1738</MEAN_ANOMALY></meanElements><tleParameters><EPHEMERIS_TYPE>0</EPHEMERIS_TYPE><CLASSIFICATION_TYPE>U</CLASSIFICATION_TYPE><NORAD_CAT_ID>25273</NORAD_CAT_ID><ELEMENT_SET_NO>999</ELEMENT_SET_NO><REV_AT_EPOCH>41132</REV_AT_EPOCH><BSTAR>.32882E-3</BSTAR><MEAN_MOTION_DOT>.97E-5</MEAN_MOTION_DOT><MEAN_MOTION_DDOT>0</MEAN_MOTION_DDOT></tleParameters></data></segment></body></omm>

</ndm>
